[
    {
        "CCSDS_OMM_VERS": "3.0",
        "COMMENT": "GENERATED VIA SPACE-TRACK.ORG API",
        "CREATION_DATE": "2025-04-14T03:05:54",
        "ORIGINATOR": "18 SPCS",
        "OBJECT_NAME": "BEIDOU 3",
        "OBJECT_ID": "2010-001A",
        "CENTER_NAME": "EARTH",
        "REF_FRAME": "TEME",
        "TIME_SYSTEM": "UTC",
        "MEAN_ELEMENT_THEORY": "SGP4",
        "EPOCH": "2025-04-13T22:04:46.658208",
        "MEAN_MOTION": "1.00268918",
        "ECCENTRICITY": "0.00045810",
        "INCLINATION": "3.2933",
        "RA_OF_ASC_NODE": "60.5074",
        "ARG_OF_PERICENTER": "305.0817",
        "MEAN_ANOMALY": "308.3376",
        "EPHEMERIS_TYPE": "0",
        "CLASSIFICATION_TYPE": "U",
        "NORAD_CAT_ID": "36287",
        "ELEMENT_SET_NO": "999",
        "REV_AT_EPOCH": "5586",
        "BSTAR": "0.00000000000000",
        "MEAN_MOTION_DOT": "-0.00000272",
        "MEAN_MOTION_DDOT": "0.0000000000000",
        "SEMIMAJOR_AXIS": "42165.536",
        "PERIOD": "1436.138",
        "APOAPSIS": "35806.717",
        "PERIAPSIS": "35768.085",
        "OBJECT_TYPE": "PAYLOAD",
        "RCS_SIZE": "LARGE",
        "COUNTRY_CODE": "PRC",
        "LAUNCH_DATE": "2010-01-16",
        "SITE": "XSC",
        "DECAY_DATE": null,
        "FILE": "4701263",
        "GP_ID": "285534344",
        "TLE_LINE0": "0 BEIDOU 3",
        "TLE_LINE1": "1 36287U 10001A   25103.91998447 -.00000272  00000-0  00000-0 0  9992",
        "TLE_LINE2": "2 36287   3.2933  60.5074 0004581 305.0817 308.3376  1.00268918 55861"
    }
]